[
    {
        "CCSDS_OMM_VERS": "3.0",
        "COMMENT": "GENERATED VIA SPACE-TRACK.ORG API",
        "CREATION_DATE": "2025-05-04T02:26:54",
        "ORIGINATOR": "18 SPCS",
        "OBJECT_NAME": "COSMOS 2466 (GLONASS)",
        "OBJECT_ID": "2010-041A",
        "CENTER_NAME": "EARTH",
        "REF_FRAME": "TEME",
        "TIME_SYSTEM": "UTC",
        "MEAN_ELEMENT_THEORY": "SGP4",
        "EPOCH": "2025-05-03T21:25:38.900640",
        "MEAN_MOTION": "2.13112618",
        "ECCENTRICITY": "0.00176530",
        "INCLINATION": "63.8908",
        "RA_OF_ASC_NODE": "204.1072",
        "ARG_OF_PERICENTER": "178.3155",
        "MEAN_ANOMALY": "183.4798",
        "EPHEMERIS_TYPE": "0",
        "CLASSIFICATION_TYPE": "U",
        "NORAD_CAT_ID": "37137",
        "ELEMENT_SET_NO": "999",
        "REV_AT_EPOCH": "11412",
        "BSTAR": "0.00000000000000",
        "MEAN_MOTION_DOT": "-0.00000019",
        "MEAN_MOTION_DDOT": "0.0000000000000",
        "SEMIMAJOR_AXIS": "25507.177",
        "PERIOD": "675.699",
        "APOAPSIS": "19174.070",
        "PERIAPSIS": "19084.014",
        "OBJECT_TYPE": "PAYLOAD",
        "RCS_SIZE": "LARGE",
        "COUNTRY_CODE": "CIS",
        "LAUNCH_DATE": "2010-09-02",
        "SITE": "TTMTR",
        "DECAY_DATE": null,
        "FILE": "4718307",
        "GP_ID": "286795251",
        "TLE_LINE0": "0 COSMOS 2466 (GLONASS)",
        "TLE_LINE1": "1 37137U 10041A   25123.89281135 -.00000019  00000-0  00000-0 0  9998",
        "TLE_LINE2": "2 37137  63.8908 204.1072 0017653 178.3155 183.4798  2.13112618114129"
    }
]